CCSDS_OMM_VERS = 2.0
CREATION_DATE  = 
ORIGINATOR     = 

OBJECT_NAME    = STARLINK-36350
OBJECT_ID      = 2026-016M
CENTER_NAME    = EARTH
REF_FRAME      = TEME
TIME_SYSTEM    = UTC
MEAN_ELEMENT_THEORY = SGP/SGP4

EPOCH          = 2026-02-08T12:00:01.999296
MEAN_MOTION    = 15.80765708
ECCENTRICITY   = .0001468
INCLINATION    = 97.2779
RA_OF_ASC_NODE = 98.4780
ARG_OF_PERICENTER = 95.1460
MEAN_ANOMALY   = 279.8202

EPHEMERIS_TYPE = 0
CLASSIFICATION_TYPE = U
NORAD_CAT_ID   = 67572
ELEMENT_SET_NO = 999
REV_AT_EPOCH   = 324
BSTAR          = .53841E-3
MEAN_MOTION_DOT = .103988E-2
MEAN_MOTION_DDOT = 0

CCSDS_OMM_VERS = 2.0
CREATION_DATE  = 
ORIGINATOR     = 

OBJECT_NAME    = STARLINK-36588
OBJECT_ID      = 2026-016N
CENTER_NAME    = EARTH
REF_FRAME      = TEME
TIME_SYSTEM    = UTC
MEAN_ELEMENT_THEORY = SGP/SGP4

EPOCH          = 2026-02-08T12:00:01.999296
MEAN_MOTION    = 15.80790107
ECCENTRICITY   = .0001541
INCLINATION    = 97.2834
RA_OF_ASC_NODE = 98.4824
ARG_OF_PERICENTER = 102.3695
MEAN_ANOMALY   = 280.9666

EPHEMERIS_TYPE = 0
CLASSIFICATION_TYPE = U
NORAD_CAT_ID   = 67573
ELEMENT_SET_NO = 999
REV_AT_EPOCH   = 340
BSTAR          = .31263E-3
MEAN_MOTION_DOT = .60084E-3
MEAN_MOTION_DDOT = 0

CCSDS_OMM_VERS = 2.0
CREATION_DATE  = 
ORIGINATOR     = 

OBJECT_NAME    = STARLINK-36594
OBJECT_ID      = 2026-016P
CENTER_NAME    = EARTH
REF_FRAME      = TEME
TIME_SYSTEM    = UTC
MEAN_ELEMENT_THEORY = SGP/SGP4

EPOCH          = 2026-02-08T12:00:01.999296
MEAN_MOTION    = 15.80767413
ECCENTRICITY   = .0001409
INCLINATION    = 97.2835
RA_OF_ASC_NODE = 98.4843
ARG_OF_PERICENTER = 112.6344
MEAN_ANOMALY   = 275.7816

EPHEMERIS_TYPE = 0
CLASSIFICATION_TYPE = U
NORAD_CAT_ID   = 67574
ELEMENT_SET_NO = 999
REV_AT_EPOCH   = 340
BSTAR          = .73785E-3
MEAN_MOTION_DOT = .143217E-2
MEAN_MOTION_DDOT = 0

CCSDS_OMM_VERS = 2.0
CREATION_DATE  = 
ORIGINATOR     = 

OBJECT_NAME    = STARLINK-36400
OBJECT_ID      = 2026-016Q
CENTER_NAME    = EARTH
REF_FRAME      = TEME
TIME_SYSTEM    = UTC
MEAN_ELEMENT_THEORY = SGP/SGP4

EPOCH          = 2026-02-08T12:00:01.999296
MEAN_MOTION    = 15.80797936
ECCENTRICITY   = .0001548
INCLINATION    = 97.2772
RA_OF_ASC_NODE = 98.4863
ARG_OF_PERICENTER = 97.9336
MEAN_ANOMALY   = 296.1278

EPHEMERIS_TYPE = 0
CLASSIFICATION_TYPE = U
NORAD_CAT_ID   = 67575
ELEMENT_SET_NO = 999
REV_AT_EPOCH   = 329
BSTAR          = .26893E-3
MEAN_MOTION_DOT = .51634E-3
MEAN_MOTION_DDOT = 0

CCSDS_OMM_VERS = 2.0
CREATION_DATE  = 
ORIGINATOR     = 

OBJECT_NAME    = STARLINK-36591
OBJECT_ID      = 2026-016R
CENTER_NAME    = EARTH
REF_FRAME      = TEME
TIME_SYSTEM    = UTC
MEAN_ELEMENT_THEORY = SGP/SGP4

EPOCH          = 2026-02-08T12:00:01.999296
MEAN_MOTION    = 15.80796171
ECCENTRICITY   = .0001323
INCLINATION    = 97.2837
RA_OF_ASC_NODE = 98.4888
ARG_OF_PERICENTER = 86.3658
MEAN_ANOMALY   = 313.5915

EPHEMERIS_TYPE = 0
CLASSIFICATION_TYPE = U
NORAD_CAT_ID   = 67576
ELEMENT_SET_NO = 999
REV_AT_EPOCH   = 335
BSTAR          = .37563E-3
MEAN_MOTION_DOT = .72342E-3
MEAN_MOTION_DDOT = 0

CCSDS_OMM_VERS = 2.0
CREATION_DATE  = 
ORIGINATOR     = 

OBJECT_NAME    = STARLINK-36590
OBJECT_ID      = 2026-016S
CENTER_NAME    = EARTH
REF_FRAME      = TEME
TIME_SYSTEM    = UTC
MEAN_ELEMENT_THEORY = SGP/SGP4

EPOCH          = 2026-02-08T12:00:01.999296
MEAN_MOTION    = 15.80778132
ECCENTRICITY   = .0001566
INCLINATION    = 97.2762
RA_OF_ASC_NODE = 98.4897
ARG_OF_PERICENTER = 110.0799
MEAN_ANOMALY   = 295.2993

EPHEMERIS_TYPE = 0
CLASSIFICATION_TYPE = U
NORAD_CAT_ID   = 67577
ELEMENT_SET_NO = 999
REV_AT_EPOCH   = 335
BSTAR          = .4874E-3
MEAN_MOTION_DOT = .94068E-3
MEAN_MOTION_DDOT = 0

CCSDS_OMM_VERS = 2.0
CREATION_DATE  = 
ORIGINATOR     = 

OBJECT_NAME    = STARLINK-36613
OBJECT_ID      = 2026-016T
CENTER_NAME    = EARTH
REF_FRAME      = TEME
TIME_SYSTEM    = UTC
MEAN_ELEMENT_THEORY = SGP/SGP4

EPOCH          = 2026-02-08T12:00:01.999296
MEAN_MOTION    = 15.80786336
ECCENTRICITY   = .0001556
INCLINATION    = 97.2813
RA_OF_ASC_NODE = 98.4927
ARG_OF_PERICENTER = 101.4527
MEAN_ANOMALY   = 310.4585

EPHEMERIS_TYPE = 0
CLASSIFICATION_TYPE = U
NORAD_CAT_ID   = 67578
ELEMENT_SET_NO = 999
REV_AT_EPOCH   = 335
BSTAR          = .52834E-3
MEAN_MOTION_DOT = .102116E-2
MEAN_MOTION_DDOT = 0

CCSDS_OMM_VERS = 2.0
CREATION_DATE  = 
ORIGINATOR     = 

OBJECT_NAME    = STARLINK-36571
OBJECT_ID      = 2026-016U
CENTER_NAME    = EARTH
REF_FRAME      = TEME
TIME_SYSTEM    = UTC
MEAN_ELEMENT_THEORY = SGP/SGP4

EPOCH          = 2026-02-08T06:00:02.000160
MEAN_MOTION    = 15.80803997
ECCENTRICITY   = .00017232
INCLINATION    = 97.2802
RA_OF_ASC_NODE = 98.2337
ARG_OF_PERICENTER = 96.0623
MEAN_ANOMALY   = 342.5163

EPHEMERIS_TYPE = 0
CLASSIFICATION_TYPE = U
NORAD_CAT_ID   = 67579
ELEMENT_SET_NO = 999
REV_AT_EPOCH   = 331
BSTAR          = .28801905E-3
MEAN_MOTION_DOT = .5535E-3
MEAN_MOTION_DDOT = 0

CCSDS_OMM_VERS = 2.0
CREATION_DATE  = 
ORIGINATOR     = 

OBJECT_NAME    = STARLINK-36612
OBJECT_ID      = 2026-016V
CENTER_NAME    = EARTH
REF_FRAME      = TEME
TIME_SYSTEM    = UTC
MEAN_ELEMENT_THEORY = SGP/SGP4

EPOCH          = 2026-02-08T06:00:02.000160
MEAN_MOTION    = 15.80843751
ECCENTRICITY   = .000141
INCLINATION    = 97.2802
RA_OF_ASC_NODE = 98.2356
ARG_OF_PERICENTER = 87.8387
MEAN_ANOMALY   = 357.0047

EPHEMERIS_TYPE = 0
CLASSIFICATION_TYPE = U
NORAD_CAT_ID   = 67580
ELEMENT_SET_NO = 999
REV_AT_EPOCH   = 331
BSTAR          = -.29299584E-3
MEAN_MOTION_DOT = -.55977E-3
MEAN_MOTION_DDOT = 0

CCSDS_OMM_VERS = 2.0
CREATION_DATE  = 
ORIGINATOR     = 

OBJECT_NAME    = STARLINK-36632
OBJECT_ID      = 2026-016W
CENTER_NAME    = EARTH
REF_FRAME      = TEME
TIME_SYSTEM    = UTC
MEAN_ELEMENT_THEORY = SGP/SGP4

EPOCH          = 2026-02-08T06:00:02.000160
MEAN_MOTION    = 15.80846537
ECCENTRICITY   = .00014121
INCLINATION    = 97.2797
RA_OF_ASC_NODE = 98.2431
ARG_OF_PERICENTER = 78.2860
MEAN_ANOMALY   = 24.5600

EPHEMERIS_TYPE = 0
CLASSIFICATION_TYPE = U
NORAD_CAT_ID   = 67581
ELEMENT_SET_NO = 999
REV_AT_EPOCH   = 331
BSTAR          = -.26573258E-3
MEAN_MOTION_DOT = -.50818E-3
MEAN_MOTION_DDOT = 0

CCSDS_OMM_VERS = 2.0
CREATION_DATE  = 
ORIGINATOR     = 

OBJECT_NAME    = STARLINK-36609
OBJECT_ID      = 2026-016X
CENTER_NAME    = EARTH
REF_FRAME      = TEME
TIME_SYSTEM    = UTC
MEAN_ELEMENT_THEORY = SGP/SGP4

EPOCH          = 2026-02-08T06:00:02.000160
MEAN_MOTION    = 15.79270113
ECCENTRICITY   = .00017936
INCLINATION    = 97.2769
RA_OF_ASC_NODE = 98.2453
ARG_OF_PERICENTER = 64.3759
MEAN_ANOMALY   = 43.5794

EPHEMERIS_TYPE = 0
CLASSIFICATION_TYPE = U
NORAD_CAT_ID   = 67582
ELEMENT_SET_NO = 999
REV_AT_EPOCH   = 331
BSTAR          = -.12724785E-1
MEAN_MOTION_DOT = -.1973358E-1
MEAN_MOTION_DDOT = 0

CCSDS_OMM_VERS = 2.0
CREATION_DATE  = 
ORIGINATOR     = 

OBJECT_NAME    = STARLINK-36577
OBJECT_ID      = 2026-016Y
CENTER_NAME    = EARTH
REF_FRAME      = TEME
TIME_SYSTEM    = UTC
MEAN_ELEMENT_THEORY = SGP/SGP4

EPOCH          = 2026-02-08T06:00:02.000160
MEAN_MOTION    = 15.80828085
ECCENTRICITY   = .00013903
INCLINATION    = 97.2795
RA_OF_ASC_NODE = 98.2382
ARG_OF_PERICENTER = 72.2532
MEAN_ANOMALY   = 20.9893

EPHEMERIS_TYPE = 0
CLASSIFICATION_TYPE = U
NORAD_CAT_ID   = 67583
ELEMENT_SET_NO = 999
REV_AT_EPOCH   = 331
BSTAR          = -.18649157E-3
MEAN_MOTION_DOT = -.35738E-3
MEAN_MOTION_DDOT = 0

