STARLINK-36350          
1 67572U 26016M   26039.50002314  .00103988  00000+0  53841-3 0  9999
2 67572  97.2779  98.4780 0001468  95.1460 279.8202 15.80765708  3246
STARLINK-36588          
1 67573U 26016N   26039.50002314  .00060084  00000+0  31263-3 0  9993
2 67573  97.2834  98.4824 0001541 102.3695 280.9666 15.80790107  3407
STARLINK-36594          
1 67574U 26016P   26039.50002314  .00143217  00000+0  73785-3 0  9999
2 67574  97.2835  98.4843 0001409 112.6344 275.7816 15.80767413  3401
STARLINK-36400          
1 67575U 26016Q   26039.50002314  .00051634  00000+0  26893-3 0  9999
2 67575  97.2772  98.4863 0001548  97.9336 296.1278 15.80797936  3293
STARLINK-36591          
1 67576U 26016R   26039.50002314  .00072342  00000+0  37563-3 0  9995
2 67576  97.2837  98.4888 0001323  86.3658 313.5915 15.80796171  3352
STARLINK-36590          
1 67577U 26016S   26039.50002314  .00094068  00000+0  48740-3 0  9994
2 67577  97.2762  98.4897 0001566 110.0799 295.2993 15.80778132  3359
STARLINK-36613          
1 67578U 26016T   26039.50002314  .00102116  00000+0  52834-3 0  9998
2 67578  97.2813  98.4927 0001556 101.4527 310.4585 15.80786336  3355
STARLINK-36571          
1 67579U 26016U   26039.25002315  .00055350  00000+0  28802-3 0  9997
2 67579  97.2802  98.2337 0001723  96.0623 342.5163 15.80803997  3316
STARLINK-36612          
1 67580U 26016V   26039.25002315 -.00055977  00000+0 -29300-3 0  9990
2 67580  97.2802  98.2356 0001410  87.8387 357.0047 15.80843751  3311
STARLINK-36632          
1 67581U 26016W   26039.25002315 -.00050818  00000+0 -26573-3 0  9999
2 67581  97.2797  98.2431 0001412  78.2860  24.5600 15.80846537  3317
STARLINK-36609          
1 67582U 26016X   26039.25002315 -.01973358  00000+0 -12725-1 0  9996
2 67582  97.2769  98.2453 0001793  64.3759  43.5794 15.79270113  3310
STARLINK-36577          
1 67583U 26016Y   26039.25002315 -.00035738  00000+0 -18649-3 0  9990
2 67583  97.2795  98.2382 0001390  72.2532  20.9893 15.80828085  3319
